TIANWANG 1C (TW-1C)     
1 40926U 15051B   17242.18281319  .00007028  00000-0  15765-3 0  9996
2 40926  97.2243 281.1913 0009407 258.7919 175.4927 15.43664899108331
TIANWANG 1B (TW-1B)     
1 40927U 15051C   17242.11226696  .00007003  00000-0  16313-3 0  9990
2 40927  97.2333 281.1056 0009236 271.6435 165.3394 15.42540920108262
TIANWANG 1A (TW-1A)     
1 40928U 15051D   17242.14112916  .00002968  00000-0  85245-4 0  9999
2 40928  97.2215 276.6255 0010748 297.0613 139.2360 15.36570182108058
LAPAN-A2 (IO-86)        
1 40931U 15052B   17242.00540787  .00000745  00000-0  14728-4 0  9999
2 40931   5.9998  66.3903 0013302 211.0927 148.8523 14.76538847103892
LQSAT                   
1 40958U 15057A   17242.22473511  .00000062  00000-0  17436-4 0  9998
2 40958  97.9734 316.2345 0017847 184.6517 175.4539 14.72980170102028
CHUBUSAT-2              
1 41338U 16012B   17241.56304069  .00000461  00000-0  29581-4 0  9997
2 41338  31.0044   6.2324 0013845  65.3656 294.8420 14.99781488 84013
CHUBUSAT-3              
1 41339U 16012C   17241.61437488  .00000405  00000-0  25014-4 0  9991
2 41339  31.0123   4.9330 0013701  72.3036 287.9096 14.99983674 84007
OUFTI-1                 
1 41458U 16025C   17242.06246153  .00002909  00000-0  15744-3 0  9993
2 41458  98.1788 283.8607 0174145  43.1420 318.3300 15.03443841 73680
E-ST@R-II               
1 41459U 16025D   17242.15804987  .00001697  00000-0  93808-4 0  9990
2 41459  98.1813 283.9015 0175557  43.2631 318.2225 15.03266438 73687
AAUSAT 4                
1 41460U 16025E   17242.11000153  .00003064  00000-0  16547-3 0  9995
2 41460  98.1737 283.9963 0167887  41.3816 320.0007 15.04251816 73704
NUSAT 1 (LO-87)         
1 41557U 16033B   17242.18675201  .00001896  00000-0  73590-4 0  9993
2 41557  97.4597 321.6994 0015843 105.1320 255.1672 15.27260540 69726
BEESAT-4                
1 41619U 16040W   17242.14433583  .00001933  00000-0  90254-4 0  9999
2 41619  97.4562 303.8019 0012555 162.5260 197.6410 15.20977093 53830
PRATHAM                 
1 41783U 16059A   17242.17030341  .00000051  00000-0  19488-4 0  9999
2 41783  98.1605 302.7532 0032338 289.5764  70.1947 14.62852928 49419
ALSAT 1N                
1 41789U 16059G   17242.16594010  .00000081  00000-0  24702-4 0  9990
2 41789  98.1606 303.3927 0027136 283.9013  75.9176 14.64067944 49433
NAYIF-1 (EO-88)         
1 42017U 17008BX  17242.27909367  .00002477  00000-0  10768-3 0  9994
2 42017  97.4889 303.5765 0005627 335.0388  25.0576 15.23223490 29760
LILACSAT-1              
1 42725U 98067ME  17242.02049838  .00018926  00000-0  26620-3 0  9995
2 42725  51.6405  29.2148 0006494 224.9499 135.0968 15.56684696 14970
MAX VALIER SAT          
1 42778U 17036P   17242.25735004  .00001717  00000-0  81664-4 0  9992
2 42778  97.4454 301.2055 0013161  15.9438 344.2209 15.20482524 10289
